{
    "satellites": [
        {
            "name": "starlink316",
            "title": "Starlink-316 (G10-37) (new)",
            "tle": [
                "1 70671C 25245AB  25304.04770833  .00067165  00000+0  98824-4 0  3044",
                "2 70671  53.1586 177.3034 0000867 332.3809 319.8659 16.04230635    17"
            ],
            "stdMag": 5,
            "noradId": "70671",
            "tleUrl": "http://celestrak.org/NORAD/elements/supplemental/sup-gp.php?FILE=starlink&FORMAT=tle",
            "launchDate": "2025-10-29T16:35:20.000Z",
            "active": true,
            "batch": [
                {
                    "noradId": "70671",
                    "tle": [
                        "1 70671C 25245AB  25304.04770833  .00067165  00000+0  98824-4 0  3044",
                        "2 70671  53.1586 177.3034 0000867 332.3809 319.8659 16.04230635    17"
                    ]
                },
                {
                    "noradId": "70672",
                    "tle": [
                        "1 70672C 25245AC  25304.06715278  .00035541  00000+0  52489-4 0  3049",
                        "2 70672  53.1586 177.2026 0000770 348.5071  56.0841 16.04200660    19"
                    ]
                },
                {
                    "noradId": "70673",
                    "tle": [
                        "1 70673C 25245AD  25304.04493056  .00106650  00000+0  15658-3 0  3041",
                        "2 70673  53.1586 177.3178 0000877 328.3987 307.8576 16.04226810    16"
                    ]
                },
                {
                    "noradId": "70670",
                    "tle": [
                        "1 70670C 25245AA  25304.06506944 -.00050532  00000+0 -75471-4 0  3040",
                        "2 70670  53.1586 177.2135 0000673 349.9425  42.5582 16.04101594    16"
                    ]
                },
                {
                    "noradId": "70669",
                    "tle": [
                        "1 70669C 25245Z   25304.04840278 -.00022795  00000+0 -33948-4 0  3040",
                        "2 70669  53.1586 177.2997 0000666 341.6812 314.5567 16.04121378    18"
                    ]
                },
                {
                    "noradId": "70668",
                    "tle": [
                        "1 70668C 25245Y   25304.04840278  .00006683  00000+0  99133-5 0  3044",
                        "2 70668  53.1586 177.2997 0000697 334.2815 321.9659 16.04157818    14"
                    ]
                },
                {
                    "noradId": "70674",
                    "tle": [
                        "1 70674C 25245AE  25304.04215278  .00146330  00000+0  21409-3 0  3040",
                        "2 70674  53.1586 177.3321 0000945 319.6171 300.6140 16.04244406    10"
                    ]
                },
                {
                    "noradId": "70667",
                    "tle": [
                        "1 70667C 25245X   25304.04770833 -.00054444  00000+0 -81507-4 0  3047",
                        "2 70667  53.1586 177.3037 0000678 338.7096 313.3278 16.04066306    11"
                    ]
                },
                {
                    "noradId": "70666",
                    "tle": [
                        "1 70666C 25245W   25304.05743056 -.00091223  00000+0 -13705-3 0  3044",
                        "2 70666  53.1586 177.2533 0000683 350.8800 357.2989 16.04045169    14"
                    ]
                },
                {
                    "noradId": "70665",
                    "tle": [
                        "1 70665C 25245V   25304.04840278 -.00119250  00000+0 -17972-3 0  3047",
                        "2 70665  53.1586 177.3002 0000508 330.0960 325.9006 16.04020012    10"
                    ]
                },
                {
                    "noradId": "70664",
                    "tle": [
                        "1 70664C 25245U   25304.04840278 -.00147530  00000+0 -22323-3 0  3044",
                        "2 70664  53.1586 177.3002 0000467 339.9061 316.0845 16.03982606    10"
                    ]
                },
                {
                    "noradId": "70661",
                    "tle": [
                        "1 70661C 25245R   25304.06020833 -.00183630  00000+0 -27841-3 0  3041",
                        "2 70661  53.1586 177.2395 0000480 338.6028  25.5223 16.03985835    14"
                    ]
                },
                {
                    "noradId": "70663",
                    "tle": [
                        "1 70663C 25245T   25304.04145833 -.00210980  00000+0 -32090-3 0  3040",
                        "2 70663  53.1587 177.3365 0000440 343.5037 272.2708 16.03960872    19"
                    ]
                },
                {
                    "noradId": "70662",
                    "tle": [
                        "1 70662C 25245S   25304.06784722 -.00246570  00000+0 -37627-3 0  3042",
                        "2 70662  53.1586 177.2000 0000461 355.6755  52.5093 16.03941196    10"
                    ]
                },
                {
                    "noradId": "70660",
                    "tle": [
                        "1 70660C 25245Q   25304.05951389 -.00280880  00000+0 -42935-3 0  3044",
                        "2 70660  53.1587 177.2435 0000478 350.1040   9.8737 16.03947480    18"
                    ]
                },
                {
                    "noradId": "70659",
                    "tle": [
                        "1 70659C 25245P   25304.04701389 -.00309780  00000+0 -47457-3 0  3049",
                        "2 70659  53.1585 177.3084 0000437 343.4381 304.2787 16.03940465    16"
                    ]
                },
                {
                    "noradId": "70658",
                    "tle": [
                        "1 70658C 25245N   25304.04145833 -.00343010  00000+0 -52630-3 0  3047",
                        "2 70658  53.1586 177.3375 0000421 339.4409 276.1085 16.03947745    14"
                    ]
                },
                {
                    "noradId": "70657",
                    "tle": [
                        "1 70657C 25245M   25304.04145833 -.00375980  00000+0 -57883-3 0  3042",
                        "2 70657  53.1586 177.3376 0000407 347.8168 267.7068 16.03924516    11"
                    ]
                },
                {
                    "noradId": "70654",
                    "tle": [
                        "1 70654C 25245J   25304.04701389 -.00402990  00000+0 -62289-3 0  3041",
                        "2 70654  53.1586 177.3089 0000415 348.2140 299.3977 16.03885158    11"
                    ]
                },
                {
                    "noradId": "70656",
                    "tle": [
                        "1 70656C 25245L   25304.04145833 -.00443330  00000+0 -68640-3 0  3049",
                        "2 70656  53.1586 177.3378 0000467 356.1737 259.2793 16.03897594    19"
                    ]
                },
                {
                    "noradId": "70655",
                    "tle": [
                        "1 70655C 25245K   25304.04354167 -.00475560  00000+0 -73912-3 0  3048",
                        "2 70655  53.1586 177.3271 0000480   3.4214 264.0545 16.03866309    16"
                    ]
                },
                {
                    "noradId": "70653",
                    "tle": [
                        "1 70653C 25245H   25304.04076389 -.00505480  00000+0 -78664-3 0  3047",
                        "2 70653  53.1586 177.3417 0000464 358.6389 252.6940 16.03874925    11"
                    ]
                },
                {
                    "noradId": "70652",
                    "tle": [
                        "1 70652C 25245G   25304.04284722 -.00536880  00000+0 -83811-3 0  3046",
                        "2 70652  53.1586 177.3310 0000461   3.0975 260.2403 16.03854523    12"
                    ]
                },
                {
                    "noradId": "70651",
                    "tle": [
                        "1 70651C 25245F   25304.04006944 -.00560680  00000+0 -87722-3 0  3043",
                        "2 70651  53.1586 177.3456 0000455 355.7629 251.4550 16.03841251    17"
                    ]
                },
                {
                    "noradId": "70650",
                    "tle": [
                        "1 70650C 25245E   25304.04215278 -.00590390  00000+0 -92544-3 0  3043",
                        "2 70650  53.1586 177.3349 0000453 358.5272 260.6589 16.03839862    19"
                    ]
                },
                {
                    "noradId": "70649",
                    "tle": [
                        "1 70649C 25245D   25304.04770833 -.00633710  00000+0 -99690-3 0  3047",
                        "2 70649  53.1586 177.3062 0000488 351.3112 299.9350 16.03823471    11"
                    ]
                },
                {
                    "noradId": "70648",
                    "tle": [
                        "1 70648C 25245C   25304.04006944 -.00647690  00000+0 -10205-2 0  3047",
                        "2 70648  53.1587 177.3460 0000438 359.3496 247.7066 16.03811580    14"
                    ]
                },
                {
                    "noradId": "70647",
                    "tle": [
                        "1 70647C 25245B   25304.04145833 -.00687060  00000+0 -10864-2 0  3043",
                        "2 70647  53.1587 177.3389 0000422   4.3630 250.6926 16.03791329    19"
                    ]
                },
                {
                    "noradId": "70646",
                    "tle": [
                        "1 70646C 25245A   25304.04215278 -.00700140  00000+0 -11103-2 0  3045",
                        "2 70646  53.1587 177.3355 0000444   4.8297 254.1612 16.03755341    14"
                    ]
                }
            ]
        }
    ],
    "config": {}
}